[{"OBJECT_NAME":"HYPERFIELD-1A","OBJECT_ID":"2024-149CY","EPOCH":"2026-03-09T18:21:25.814304","MEAN_MOTION":15.29681349,"ECCENTRICITY":0.00038648,"INCLINATION":97.3842,"RA_OF_ASC_NODE":149.5066,"ARG_OF_PERICENTER":313.7844,"MEAN_ANOMALY":46.3076,"EPHEMERIS_TYPE":0,"CLASSIFICATION_TYPE":"U","NORAD_CAT_ID":60562,"ELEMENT_SET_NO":999,"REV_AT_EPOCH":8683,"BSTAR":0.00030052114,"MEAN_MOTION_DOT":8.569e-5,"MEAN_MOTION_DDOT":0},{"OBJECT_NAME":"STARLINK-34445","OBJECT_ID":"2025-130V","EPOCH":"2026-03-09T08:55:49.320768","MEAN_MOTION":15.30195162,"ECCENTRICITY":0.00014785,"INCLINATION":53.1602,"RA_OF_ASC_NODE":90.0647,"ARG_OF_PERICENTER":79.581,"MEAN_ANOMALY":280.5358,"EPHEMERIS_TYPE":0,"CLASSIFICATION_TYPE":"U","NORAD_CAT_ID":64457,"ELEMENT_SET_NO":999,"REV_AT_EPOCH":4065,"BSTAR":0.00085833397,"MEAN_MOTION_DOT":0.00025144,"MEAN_MOTION_DDOT":0}]
