HYPERFIELD-1A           
1 60562U 24149CY  26068.76488211  .00008569  00000+0  30052-3 0  9998
2 60562  97.3842 149.5066 0003865 313.7844  46.3076 15.29681349 86836
STARLINK-34445          
1 64457U 25130V   26068.37209862  .00025144  00000+0  85833-3 0  9991
2 64457  53.1602  90.0647 0001478  79.5810 280.5358 15.30195162 40650
